[{"OBJECT_NAME":"STARLINK-3149","OBJECT_ID":"2021-104R","EPOCH":"2026-03-10T00:00:02.999808","MEAN_MOTION":15.8139691,"ECCENTRICITY":8.014e-5,"INCLINATION":53.2154,"RA_OF_ASC_NODE":218.1172,"ARG_OF_PERICENTER":27.2354,"MEAN_ANOMALY":132.0245,"EPHEMERIS_TYPE":0,"CLASSIFICATION_TYPE":"U","NORAD_CAT_ID":49423,"ELEMENT_SET_NO":999,"REV_AT_EPOCH":585,"BSTAR":0.0056629294,"MEAN_MOTION_DOT":0.01274681,"MEAN_MOTION_DDOT":0},{"OBJECT_NAME":"STARLINK-36762","OBJECT_ID":"2026-034U","EPOCH":"2026-03-09T18:45:08.567424","MEAN_MOTION":15.80966263,"ECCENTRICITY":4.495e-5,"INCLINATION":53.1592,"RA_OF_ASC_NODE":210.7366,"ARG_OF_PERICENTER":121.8396,"MEAN_ANOMALY":238.267,"EPHEMERIS_TYPE":0,"CLASSIFICATION_TYPE":"U","NORAD_CAT_ID":67868,"ELEMENT_SET_NO":999,"REV_AT_EPOCH":395,"BSTAR":0.001354999,"MEAN_MOTION_DOT":0.00276677,"MEAN_MOTION_DDOT":0}]
